{"type": "FeatureCollection", "features": [ {"type": "Feature", "properties": {"norad_id": 66870, "name": "STARLINK-36114", "group": "last-30-days", "lat": -13.282666513418075, "lon": -104.77541198023505, "alt_km": 375.7881379862765, "timestamp": "2025-12-22T20:43:44.566585+00:00", "meta": {"OBJECT_NAME": "STARLINK-36114", "OBJECT_ID": "2025-281Y", "EPOCH": "2025-12-22T14:00:01.999872", "MEAN_MOTION": 15.65788582, "ECCENTRICITY": 0.00013775, "INCLINATION": 43.0005, "RA_OF_ASC_NODE": 62.2262, "ARG_OF_PERICENTER": 289.0985, "MEAN_ANOMALY": 128.9202, "EPHEMERIS_TYPE": 0, "CLASSIFICATION_TYPE": "U", "NORAD_CAT_ID": 66870, "ELEMENT_SET_NO": 999, "REV_AT_EPOCH": 287, "BSTAR": -0.02132487, "MEAN_MOTION_DOT": -0.01961549, "MEAN_MOTION_DDOT": 0}, "tle": {"line1": "1 66870U 25281Y   25356.58335648 -.01961549  00000+0 -21325-1 0  9998", "line2": "2 66870  43.0005  62.2262 0001377 289.0985 128.9202 15.65788582  2876"}}, "geometry": {"type": "Point", "coordinates": [-104.77541198023505, -13.282666513418075]}}, {"type": "Feature", "properties": {"norad_id": 66871, "name": "STARLINK-36095", "group": "last-30-days", "lat": -14.542213194833447, "lon": -103.29224619987704, "alt_km": 375.9237466534123, "timestamp": "2025-12-22T20:43:44.566620+00:00", "meta": {"OBJECT_NAME": "STARLINK-36095", "OBJECT_ID": "2025-281Z", "EPOCH": "2025-12-22T14:00:01.999872", "MEAN_MOTION": 15.65786261, "ECCENTRICITY": 0.00012606, "INCLINATION": 43.0005, "RA_OF_ASC_NODE": 62.2211, "ARG_OF_PERICENTER": 291.4595, "MEAN_ANOMALY": 128.4763, "EPHEMERIS_TYPE": 0, "CLASSIFICATION_TYPE": "U", "NORAD_CAT_ID": 66871, "ELEMENT_SET_NO": 999, "REV_AT_EPOCH": 300, "BSTAR": -0.021281684, "MEAN_MOTION_DOT": -0.01957799, "MEAN_MOTION_DDOT": 0}, "tle": {"line1": "1 66871U 25281Z   25356.58335648 -.01957799  00000+0 -21282-1 0  9993", "line2": "2 66871  43.0005  62.2211 0001260 291.4595 128.4763 15.65786261  3001"}}, "geometry": {"type": "Point", "coordinates": [-103.29224619987704, -14.542213194833447]}}, {"type": "Feature", "properties": {"norad_id": 66872, "name": "STARLINK-36082", "group": "last-30-days", "lat": -15.790636621716798, "lon": -101.79406887313773, "alt_km": 376.03616815496844, "timestamp": "2025-12-22T20:43:44.566632+00:00", "meta": {"OBJECT_NAME": "STARLINK-36082", "OBJECT_ID": "2025-281AA", "EPOCH": "2025-12-22T14:00:01.999872", "MEAN_MOTION": 15.65784329, "ECCENTRICITY": 0.00012665, "INCLINATION": 43.0007, "RA_OF_ASC_NODE": 62.2161, "ARG_OF_PERICENTER": 292.9528, "MEAN_ANOMALY": 128.8982, "EPHEMERIS_TYPE": 0, "CLASSIFICATION_TYPE": "U", "NORAD_CAT_ID": 66872, "ELEMENT_SET_NO": 999, "REV_AT_EPOCH": 287, "BSTAR": -0.021221343, "MEAN_MOTION_DOT": -0.01952774, "MEAN_MOTION_DDOT": 0}, "tle": {"line1": "1 66872U 25281AA  25356.58335648 -.01952774  00000+0 -21221-1 0  9995", "line2": "2 66872  43.0007  62.2161 0001266 292.9528 128.8982 15.65784329  2870"}}, "geometry": {"type": "Point", "coordinates": [-101.79406887313773, -15.790636621716798]}}, {"type": "Feature", "properties": {"norad_id": 66873, "name": "STARLINK-36128", "group": "last-30-days", "lat": -19.47391979811403, "lon": -97.17512546974929, "alt_km": 376.2332299357249, "timestamp": "2025-12-22T20:43:44.566642+00:00", "meta": {"OBJECT_NAME": "STARLINK-36128", "OBJECT_ID": "2025-281AB", "EPOCH": "2025-12-22T14:00:01.999872", "MEAN_MOTION": 15.65787672, "ECCENTRICITY": 0.00012382, "INCLINATION": 43.0007, "RA_OF_ASC_NODE": 62.201, "ARG_OF_PERICENTER": 290.5866, "MEAN_ANOMALY": 137.0161, "EPHEMERIS_TYPE": 0, "CLASSIFICATION_TYPE": "U", "NORAD_CAT_ID": 66873, "ELEMENT_SET_NO": 999, "REV_AT_EPOCH": 300, "BSTAR": -0.021291475, "MEAN_MOTION_DOT": -0.01958675, "MEAN_MOTION_DDOT": 0}, "tle": {"line1": "1 66873U 25281AB  25356.58335648 -.01958675  00000+0 -21291-1 0  9999", "line2": "2 66873  43.0007  62.2010 0001238 290.5866 137.0161 15.65787672  3003"}}, "geometry": {"type": "Point", "coordinates": [-97.17512546974929, -19.47391979811403]}}, {"type": "Feature", "properties": {"norad_id": 66874, "name": "STARLINK-36129", "group": "last-30-days", "lat": -17.031191111997604, "lon": -100.27400710611562, "alt_km": 376.07338974426057, "timestamp": "2025-12-22T20:43:44.566652+00:00", "meta": {"OBJECT_NAME": "STARLINK-36129", "OBJECT_ID": "2025-281AC", "EPOCH": "2025-12-22T14:00:01.999872", "MEAN_MOTION": 15.65788403, "ECCENTRICITY": 0.00012544, "INCLINATION": 43.0007, "RA_OF_ASC_NODE": 62.2111, "ARG_OF_PERICENTER": 290.322, "MEAN_ANOMALY": 133.4465, "EPHEMERIS_TYPE": 0, "CLASSIFICATION_TYPE": "U", "NORAD_CAT_ID": 66874, "ELEMENT_SET_NO": 999, "REV_AT_EPOCH": 300, "BSTAR": -0.021308025, "MEAN_MOTION_DOT": -0.01960079, "MEAN_MOTION_DDOT": 0}, "tle": {"line1": "1 66874U 25281AC  25356.58335648 -.01960079  00000+0 -21308-1 0  9990", "line2": "2 66874  43.0007  62.2111 0001254 290.3220 133.4465 15.65788403  3006"}}, "geometry": {"type": "Point", "coordinates": [-100.27400710611562, -17.031191111997604]}}, {"type": "Feature", "properties": {"norad_id": 66875, "name": "STARLINK-36053", "group": "last-30-days", "lat": -20.674147324569574, "lon": -95.59321994790304, "alt_km": 376.3580727525268, "timestamp": "2025-12-22T20:43:44.566664+00:00", "meta": {"OBJECT_NAME": "STARLINK-36053", "OBJECT_ID": "2025-281AD", "EPOCH": "2025-12-22T14:00:01.999872", "MEAN_MOTION": 15.6578204, "ECCENTRICITY": 0.00012717, "INCLINATION": 43.0006, "RA_OF_ASC_NODE": 62.1955, "ARG_OF_PERICENTER": 293.5327, "MEAN_ANOMALY": 135.9888, "EPHEMERIS_TYPE": 0, "CLASSIFICATION_TYPE": "U", "NORAD_CAT_ID": 66875, "ELEMENT_SET_NO": 999, "REV_AT_EPOCH": 300, "BSTAR": -0.021202619, "MEAN_MOTION_DOT": -0.01951098, "MEAN_MOTION_DDOT": 0}, "tle": {"line1": "1 66875U 25281AD  25356.58335648 -.01951098  00000+0 -21203-1 0  9996", "line2": "2 66875  43.0006  62.1955 0001271 293.5327 135.9888 15.65782040  3000"}}, "geometry": {"type": "Point", "coordinates": [-95.59321994790304, -20.674147324569574]}}, {"type": "Feature", "properties": {"norad_id": 66876, "name": "STARLINK-35702", "group": "last-30-days", "lat": -18.25720086984254, "lon": -98.73714080446324, "alt_km": 376.21374675139486, "timestamp": "2025-12-22T20:43:44.566674+00:00", "meta": {"OBJECT_NAME": "STARLINK-35702", "OBJECT_ID": "2025-281AE", "EPOCH": "2025-12-22T14:00:01.999872", "MEAN_MOTION": 15.65782225, "ECCENTRICITY": 0.0001315, "INCLINATION": 43.0006, "RA_OF_ASC_NODE": 62.2064, "ARG_OF_PERICENTER": 293.6348, "MEAN_ANOMALY": 132.052, "EPHEMERIS_TYPE": 0, "CLASSIFICATION_TYPE": "U", "NORAD_CAT_ID": 66876, "ELEMENT_SET_NO": 999, "REV_AT_EPOCH": 300, "BSTAR": -0.021200566, "MEAN_MOTION_DOT": -0.01950976, "MEAN_MOTION_DDOT": 0}, "tle": {"line1": "1 66876U 25281AE  25356.58335648 -.01950976  00000+0 -21201-1 0  9999", "line2": "2 66876  43.0006  62.2064 0001315 293.6348 132.0520 15.65782225  3002"}}, "geometry": {"type": "Point", "coordinates": [-98.73714080446324, -18.25720086984254]}}, {"type": "Feature", "properties": {"norad_id": 66877, "name": "ZQ-3 R/B", "group": "last-30-days", "lat": -56.89779856826263, "lon": -74.57850536807196, "alt_km": 207.86094187574145, "timestamp": "2025-12-22T20:43:44.566685+00:00", "meta": {"OBJECT_NAME": "ZQ-3 R/B", "OBJECT_ID": "2025-282A", "EPOCH": "2025-12-22T11:23:59.363232", "MEAN_MOTION": 14.79282387, "ECCENTRICITY": 0.06971379, "INCLINATION": 56.9489, "RA_OF_ASC_NODE": 19.8433, "ARG_OF_PERICENTER": 237.0909, "MEAN_ANOMALY": 116.1203, "EPHEMERIS_TYPE": 0, "CLASSIFICATION_TYPE": "U", "NORAD_CAT_ID": 66877, "ELEMENT_SET_NO": 999, "REV_AT_EPOCH": 282, "BSTAR": 0.00018256658, "MEAN_MOTION_DOT": 0.01038407, "MEAN_MOTION_DDOT": 7.826595e-06}, "tle": {"line1": "1 66877U 25282A   25356.47499263  .01038407  78266-5  18257-3 0  9991", "line2": "2 66877  56.9489  19.8433 0697137 237.0909 116.1203 14.79282387  2825"}}, "geometry": {"type": "Point", "coordinates": [-74.57850536807196, -56.89779856826263]}}, {"type": "Feature", "properties": {"norad_id": 66878, "name": "STARLINK-35866", "group": "last-30-days", "lat": -51.392630370371805, "lon": -46.700457987097025, "alt_km": 358.809174868019, "timestamp": "2025-12-22T20:43:44.566695+00:00", "meta": {"OBJECT_NAME": "STARLINK-35866", "OBJECT_ID": "2025-283A", "EPOCH": "2025-12-22T14:00:01.999872", "MEAN_MOTION": 15.73168319, "ECCENTRICITY": 0.00014282, "INCLINATION": 53.1584, "RA_OF_ASC_NODE": 24.5687, "ARG_OF_PERICENTER": 73.421, "MEAN_ANOMALY": 60.922, "EPHEMERIS_TYPE": 0, "CLASSIFICATION_TYPE": "U", "NORAD_CAT_ID": 66878, "ELEMENT_SET_NO": 999, "REV_AT_EPOCH": 401, "BSTAR": -0.01536277, "MEAN_MOTION_DOT": -0.01875671, "MEAN_MOTION_DDOT": 0}, "tle": {"line1": "1 66878U 25283A   25356.58335648 -.01875671  00000+0 -15363-1 0  9993", "line2": "2 66878  53.1584  24.5687 0001428  73.4210  60.9220 15.73168319  4015"}}, "geometry": {"type": "Point", "coordinates": [-46.700457987097025, -51.392630370371805]}}, {"type": "Feature", "properties": {"norad_id": 66879, "name": "STARLINK-35749", "group": "last-30-days", "lat": -50.19699547635611, "lon": -40.96184347987018, "alt_km": 358.4168774314958, "timestamp": "2025-12-22T20:43:44.566705+00:00", "meta": {"OBJECT_NAME": "STARLINK-35749", "OBJECT_ID": "2025-283B", "EPOCH": "2025-12-22T14:00:01.999872", "MEAN_MOTION": 15.73175821, "ECCENTRICITY": 0.00010653, "INCLINATION": 53.1583, "RA_OF_ASC_NODE": 24.5603, "ARG_OF_PERICENTER": 58.5669, "MEAN_ANOMALY": 79.6024, "EPHEMERIS_TYPE": 0, "CLASSIFICATION_TYPE": "U", "NORAD_CAT_ID": 66879, "ELEMENT_SET_NO": 999, "REV_AT_EPOCH": 401, "BSTAR": -0.01542322, "MEAN_MOTION_DOT": -0.01882284, "MEAN_MOTION_DDOT": 0}, "tle": {"line1": "1 66879U 25283B   25356.58335648 -.01882284  00000+0 -15423-1 0  9999", "line2": "2 66879  53.1583  24.5603 0001065  58.5669  79.6024 15.73175821  4017"}}, "geometry": {"type": "Point", "coordinates": [-40.96184347987018, -50.19699547635611]}}]}